KUIPER-00079            
1 64826U 25151L   25314.81826434  .00005898  00000+0  83749-3 0  9994
2 64826  51.8984 105.9964 0011859 200.2883 159.7609 14.78050558 18902
KUIPER-00080            
1 64827U 25151M   25314.46851286  .00005521  00000+0  75171-3 0  9992
2 64827  51.8990 107.7676 0005278 218.8807 141.1776 14.79982307 17657
KUIPER-00082            
1 64828U 25151N   25314.65086493  .00006323  00000+0  85642-3 0  9999
2 64828  51.8997  94.4698 0004727 235.7008 124.3508 14.79992663 17854
KUIPER-00083            
1 64829U 25151P   25314.44011777 -.00000303  00000+0 -10328-4 0  9994
2 64829  51.8997 102.9004 0010488 206.8154 153.2268 14.79951522 18903
KUIPER-00084            
1 64830U 25151Q   25314.42938837  .00005693  00000+0  77411-3 0  9999
2 64830  51.8980 112.9348 0011852 176.2764 183.8289 14.79963779 17573
KUIPER-00085            
1 64831U 25151R   25314.41451477  .00005868  00000+0  79776-3 0  9999
2 64831  51.9023  95.5265 0007435 210.2935 149.7598 14.79944329 17819
KUIPER-00086            
1 64832U 25151S   25314.47115236  .00006323  00000+0  85588-3 0  9991
2 64832  51.9013 105.2643 0011157 199.5989 160.4546 14.79991202 17682
KUIPER-00087            
1 64833U 25151T   25315.00003472 -.00961926  00000+0 -10184+0 0  9997
2 64833  51.9115  85.6723 0001659 241.8245 187.6640 14.91641781  4936
